CCSDS_OMM_VERS = 2.0
CREATION_DATE  = 
ORIGINATOR     = 

OBJECT_NAME    = STARLINK-35770
OBJECT_ID      = 2025-288U
CENTER_NAME    = EARTH
REF_FRAME      = TEME
TIME_SYSTEM    = UTC
MEAN_ELEMENT_THEORY = SGP/SGP4

EPOCH          = 2025-12-26T20:00:01.999008
MEAN_MOTION    = 15.58688457
ECCENTRICITY   = .0000902
INCLINATION    = 43.0002
RA_OF_ASC_NODE = 81.3922
ARG_OF_PERICENTER = 285.1754
MEAN_ANOMALY   = 310.3645

EPHEMERIS_TYPE = 0
CLASSIFICATION_TYPE = U
NORAD_CAT_ID   = 66977
ELEMENT_SET_NO = 999
REV_AT_EPOCH   = 409
BSTAR          = -.29063E-1
MEAN_MOTION_DOT = -.2012521E-1
MEAN_MOTION_DDOT = 0

CCSDS_OMM_VERS = 2.0
CREATION_DATE  = 
ORIGINATOR     = 

OBJECT_NAME    = STARLINK-35787
OBJECT_ID      = 2025-288V
CENTER_NAME    = EARTH
REF_FRAME      = TEME
TIME_SYSTEM    = UTC
MEAN_ELEMENT_THEORY = SGP/SGP4

EPOCH          = 2025-12-26T20:00:01.999008
MEAN_MOTION    = 15.58683545
ECCENTRICITY   = .0001054
INCLINATION    = 42.9999
RA_OF_ASC_NODE = 81.3775
ARG_OF_PERICENTER = 276.9799
MEAN_ANOMALY   = 324.3099

EPHEMERIS_TYPE = 0
CLASSIFICATION_TYPE = U
NORAD_CAT_ID   = 66978
ELEMENT_SET_NO = 999
REV_AT_EPOCH   = 409
BSTAR          = -.28934E-1
MEAN_MOTION_DOT = -.2004514E-1
MEAN_MOTION_DDOT = 0

CCSDS_OMM_VERS = 2.0
CREATION_DATE  = 
ORIGINATOR     = 

OBJECT_NAME    = STARLINK-36107
OBJECT_ID      = 2025-288W
CENTER_NAME    = EARTH
REF_FRAME      = TEME
TIME_SYSTEM    = UTC
MEAN_ELEMENT_THEORY = SGP/SGP4

EPOCH          = 2025-12-26T20:00:01.999008
MEAN_MOTION    = 15.58691341
ECCENTRICITY   = .0001179
INCLINATION    = 43.0000
RA_OF_ASC_NODE = 81.3722
ARG_OF_PERICENTER = 272.4669
MEAN_ANOMALY   = 330.7411

EPHEMERIS_TYPE = 0
CLASSIFICATION_TYPE = U
NORAD_CAT_ID   = 66979
ELEMENT_SET_NO = 999
REV_AT_EPOCH   = 409
BSTAR          = -.29213E-1
MEAN_MOTION_DOT = -.2060672E-1
MEAN_MOTION_DDOT = 0

CCSDS_OMM_VERS = 2.0
CREATION_DATE  = 
ORIGINATOR     = 

OBJECT_NAME    = STARLINK-36086
OBJECT_ID      = 2025-288X
CENTER_NAME    = EARTH
REF_FRAME      = TEME
TIME_SYSTEM    = UTC
MEAN_ELEMENT_THEORY = SGP/SGP4

EPOCH          = 2025-12-26T20:00:01.999008
MEAN_MOTION    = 15.58691618
ECCENTRICITY   = .0001103
INCLINATION    = 42.9998
RA_OF_ASC_NODE = 81.3674
ARG_OF_PERICENTER = 274.3160
MEAN_ANOMALY   = 330.8074

EPHEMERIS_TYPE = 0
CLASSIFICATION_TYPE = U
NORAD_CAT_ID   = 66980
ELEMENT_SET_NO = 999
REV_AT_EPOCH   = 409
BSTAR          = -.29209E-1
MEAN_MOTION_DOT = -.2060351E-1
MEAN_MOTION_DDOT = 0

CCSDS_OMM_VERS = 2.0
CREATION_DATE  = 
ORIGINATOR     = 

OBJECT_NAME    = STARLINK-36142
OBJECT_ID      = 2025-288Y
CENTER_NAME    = EARTH
REF_FRAME      = TEME
TIME_SYSTEM    = UTC
MEAN_ELEMENT_THEORY = SGP/SGP4

EPOCH          = 2025-12-26T20:00:01.999008
MEAN_MOTION    = 15.58699453
ECCENTRICITY   = .0001353
INCLINATION    = 42.9996
RA_OF_ASC_NODE = 81.3619
ARG_OF_PERICENTER = 274.9667
MEAN_ANOMALY   = 332.0726

EPHEMERIS_TYPE = 0
CLASSIFICATION_TYPE = U
NORAD_CAT_ID   = 66981
ELEMENT_SET_NO = 999
REV_AT_EPOCH   = 409
BSTAR          = -.29432E-1
MEAN_MOTION_DOT = -.2075145E-1
MEAN_MOTION_DDOT = 0

CCSDS_OMM_VERS = 2.0
CREATION_DATE  = 
ORIGINATOR     = 

OBJECT_NAME    = STARLINK-36113
OBJECT_ID      = 2025-288Z
CENTER_NAME    = EARTH
REF_FRAME      = TEME
TIME_SYSTEM    = UTC
MEAN_ELEMENT_THEORY = SGP/SGP4

EPOCH          = 2025-12-26T20:00:01.999008
MEAN_MOTION    = 15.58682472
ECCENTRICITY   = .0001265
INCLINATION    = 42.9999
RA_OF_ASC_NODE = 81.3581
ARG_OF_PERICENTER = 276.7929
MEAN_ANOMALY   = 332.1644

EPHEMERIS_TYPE = 0
CLASSIFICATION_TYPE = U
NORAD_CAT_ID   = 66982
ELEMENT_SET_NO = 999
REV_AT_EPOCH   = 409
BSTAR          = -.28902E-1
MEAN_MOTION_DOT = -.2002634E-1
MEAN_MOTION_DDOT = 0

CCSDS_OMM_VERS = 2.0
CREATION_DATE  = 
ORIGINATOR     = 

OBJECT_NAME    = STARLINK-36145
OBJECT_ID      = 2025-288AA
CENTER_NAME    = EARTH
REF_FRAME      = TEME
TIME_SYSTEM    = UTC
MEAN_ELEMENT_THEORY = SGP/SGP4

EPOCH          = 2025-12-26T20:00:01.999008
MEAN_MOTION    = 15.58689812
ECCENTRICITY   = .0001081
INCLINATION    = 42.9998
RA_OF_ASC_NODE = 81.3481
ARG_OF_PERICENTER = 269.9189
MEAN_ANOMALY   = 342.8749

EPHEMERIS_TYPE = 0
CLASSIFICATION_TYPE = U
NORAD_CAT_ID   = 66983
ELEMENT_SET_NO = 999
REV_AT_EPOCH   = 409
BSTAR          = -.29176E-1
MEAN_MOTION_DOT = -.2058133E-1
MEAN_MOTION_DDOT = 0

CCSDS_OMM_VERS = 2.0
CREATION_DATE  = 
ORIGINATOR     = 

OBJECT_NAME    = STARLINK-35591
OBJECT_ID      = 2025-288AB
CENTER_NAME    = EARTH
REF_FRAME      = TEME
TIME_SYSTEM    = UTC
MEAN_ELEMENT_THEORY = SGP/SGP4

EPOCH          = 2025-12-26T20:00:01.999008
MEAN_MOTION    = 15.58688172
ECCENTRICITY   = .0001006
INCLINATION    = 42.9999
RA_OF_ASC_NODE = 81.3531
ARG_OF_PERICENTER = 282.4725
MEAN_ANOMALY   = 328.4051

EPHEMERIS_TYPE = 0
CLASSIFICATION_TYPE = U
NORAD_CAT_ID   = 66984
ELEMENT_SET_NO = 999
REV_AT_EPOCH   = 409
BSTAR          = -.29098E-1
MEAN_MOTION_DOT = -.2014688E-1
MEAN_MOTION_DDOT = 0

CCSDS_OMM_VERS = 2.0
CREATION_DATE  = 
ORIGINATOR     = 

OBJECT_NAME    = STARLINK-36103
OBJECT_ID      = 2025-288AC
CENTER_NAME    = EARTH
REF_FRAME      = TEME
TIME_SYSTEM    = UTC
MEAN_ELEMENT_THEORY = SGP/SGP4

EPOCH          = 2025-12-26T20:00:01.999008
MEAN_MOTION    = 15.58688305
ECCENTRICITY   = .0001095
INCLINATION    = 43.0000
RA_OF_ASC_NODE = 81.3433
ARG_OF_PERICENTER = 271.8687
MEAN_ANOMALY   = 342.8424

EPHEMERIS_TYPE = 0
CLASSIFICATION_TYPE = U
NORAD_CAT_ID   = 66985
ELEMENT_SET_NO = 999
REV_AT_EPOCH   = 409
BSTAR          = -.29126E-1
MEAN_MOTION_DOT = -.2016471E-1
MEAN_MOTION_DDOT = 0

CCSDS_OMM_VERS = 2.0
CREATION_DATE  = 
ORIGINATOR     = 

OBJECT_NAME    = STARLINK-36135
OBJECT_ID      = 2025-288AD
CENTER_NAME    = EARTH
REF_FRAME      = TEME
TIME_SYSTEM    = UTC
MEAN_ELEMENT_THEORY = SGP/SGP4

EPOCH          = 2025-12-26T20:00:01.999008
MEAN_MOTION    = 15.58689022
ECCENTRICITY   = .0001132
INCLINATION    = 42.9999
RA_OF_ASC_NODE = 81.3381
ARG_OF_PERICENTER = 273.4536
MEAN_ANOMALY   = 343.1723

EPHEMERIS_TYPE = 0
CLASSIFICATION_TYPE = U
NORAD_CAT_ID   = 66986
ELEMENT_SET_NO = 999
REV_AT_EPOCH   = 409
BSTAR          = -.29103E-1
MEAN_MOTION_DOT = -.2015162E-1
MEAN_MOTION_DDOT = 0

CCSDS_OMM_VERS = 2.0
CREATION_DATE  = 
ORIGINATOR     = 

OBJECT_NAME    = STARLINK-36147
OBJECT_ID      = 2025-288AE
CENTER_NAME    = EARTH
REF_FRAME      = TEME
TIME_SYSTEM    = UTC
MEAN_ELEMENT_THEORY = SGP/SGP4

EPOCH          = 2025-12-26T20:00:01.999008
MEAN_MOTION    = 15.58689282
ECCENTRICITY   = .0001289
INCLINATION    = 42.9998
RA_OF_ASC_NODE = 81.3336
ARG_OF_PERICENTER = 273.0967
MEAN_ANOMALY   = 345.4450

EPHEMERIS_TYPE = 0
CLASSIFICATION_TYPE = U
NORAD_CAT_ID   = 66987
ELEMENT_SET_NO = 999
REV_AT_EPOCH   = 409
BSTAR          = -.29082E-1
MEAN_MOTION_DOT = -.2014045E-1
MEAN_MOTION_DDOT = 0

CCSDS_OMM_VERS = 2.0
CREATION_DATE  = 
ORIGINATOR     = 

OBJECT_NAME    = YAOGAN-47
OBJECT_ID      = 2025-289A
CENTER_NAME    = EARTH
REF_FRAME      = TEME
TIME_SYSTEM    = UTC
MEAN_ELEMENT_THEORY = SGP/SGP4

EPOCH          = 2025-12-20T02:21:43.539840
MEAN_MOTION    = 15.23243112
ECCENTRICITY   = .00006467
INCLINATION    = 97.5265
RA_OF_ASC_NODE = 59.2376
ARG_OF_PERICENTER = 91.4531
MEAN_ANOMALY   = 268.6780

EPHEMERIS_TYPE = 0
CLASSIFICATION_TYPE = U
NORAD_CAT_ID   = 66988
ELEMENT_SET_NO = 999
REV_AT_EPOCH   = 166
BSTAR          = .10945697E-3
MEAN_MOTION_DOT = .252E-4
MEAN_MOTION_DDOT = 0

