STARLINK-35770          
1 66977U 25288U   25360.83335647 -.02012521  00000+0 -29063-1 0  9990
2 66977  43.0002  81.3922 0000902 285.1754 310.3645 15.58688457  4096
STARLINK-35787          
1 66978U 25288V   25360.83335647 -.02004514  00000+0 -28934-1 0  9990
2 66978  42.9999  81.3775 0001054 276.9799 324.3099 15.58683545  4093
STARLINK-36107          
1 66979U 25288W   25360.83335647 -.02060672  00000+0 -29213-1 0  9999
2 66979  43.0000  81.3722 0001179 272.4669 330.7411 15.58691341  4098
STARLINK-36086          
1 66980U 25288X   25360.83335647 -.02060351  00000+0 -29209-1 0  9990
2 66980  42.9998  81.3674 0001103 274.3160 330.8074 15.58691618  4097
STARLINK-36142          
1 66981U 25288Y   25360.83335647 -.02075145  00000+0 -29432-1 0  9996
2 66981  42.9996  81.3619 0001353 274.9667 332.0726 15.58699453  4093
STARLINK-36113          
1 66982U 25288Z   25360.83335647 -.02002634  00000+0 -28902-1 0  9991
2 66982  42.9999  81.3581 0001265 276.7929 332.1644 15.58682472  4091
STARLINK-36145          
1 66983U 25288AA  25360.83335647 -.02058133  00000+0 -29176-1 0  9991
2 66983  42.9998  81.3481 0001081 269.9189 342.8749 15.58689812  4097
STARLINK-35591          
1 66984U 25288AB  25360.83335647 -.02014688  00000+0 -29098-1 0  9992
2 66984  42.9999  81.3531 0001006 282.4725 328.4051 15.58688172  4092
STARLINK-36103          
1 66985U 25288AC  25360.83335647 -.02016471  00000+0 -29126-1 0  9997
2 66985  43.0000  81.3433 0001095 271.8687 342.8424 15.58688305  4098
STARLINK-36135          
1 66986U 25288AD  25360.83335647 -.02015162  00000+0 -29103-1 0  9999
2 66986  42.9999  81.3381 0001132 273.4536 343.1723 15.58689022  4092
STARLINK-36147          
1 66987U 25288AE  25360.83335647 -.02014045  00000+0 -29082-1 0  9995
2 66987  42.9998  81.3336 0001289 273.0967 345.4450 15.58689282  4099
YAOGAN-47               
1 66988U 25289A   25354.09842060  .00002520  00000+0  10946-3 0  9992
2 66988  97.5265  59.2376 0000646  91.4531 268.6780 15.23243112  1668
